{"type": "FeatureCollection", "features": [ {"type": "Feature", "properties": {"norad_id": 30272, "name": "FENGYUN 1C DEB", "group": "fengyun-1c-debris", "lat": -57.302713875438684, "lon": 81.94286329329127, "alt_km": 870.472684242548, "timestamp": "2025-12-26T03:50:12.368311+00:00", "meta": {"OBJECT_NAME": "FENGYUN 1C DEB", "OBJECT_ID": "1999-025YH", "EPOCH": "2025-12-24T21:33:37.962720", "MEAN_MOTION": 14.14762293, "ECCENTRICITY": 0.0050191, "INCLINATION": 98.9002, "RA_OF_ASC_NODE": 66.5562, "ARG_OF_PERICENTER": 69.5825, "MEAN_ANOMALY": 291.0728, "EPHEMERIS_TYPE": 0, "CLASSIFICATION_TYPE": "U", "NORAD_CAT_ID": 30272, "ELEMENT_SET_NO": 999, "REV_AT_EPOCH": 97028, "BSTAR": 0.001076, "MEAN_MOTION_DOT": 2.055e-05, "MEAN_MOTION_DDOT": 0}, "tle": {"line1": "1 30272U 99025YH  25358.89835605  .00002055  00000+0  10760-2 0  9993", "line2": "2 30272  98.9002  66.5562 0050191  69.5825 291.0728 14.14762293970289"}}, "geometry": {"type": "Point", "coordinates": [81.94286329329127, -57.302713875438684]}}, {"type": "Feature", "properties": {"norad_id": 30273, "name": "FENGYUN 1C DEB", "group": "fengyun-1c-debris", "lat": 55.494761148708704, "lon": 1.2453149750371746, "alt_km": 919.1911113192045, "timestamp": "2025-12-26T03:50:12.368331+00:00", "meta": {"OBJECT_NAME": "FENGYUN 1C DEB", "OBJECT_ID": "1999-025YJ", "EPOCH": "2025-12-25T12:52:57.367776", "MEAN_MOTION": 14.02675278, "ECCENTRICITY": 0.0060714, "INCLINATION": 98.8391, "RA_OF_ASC_NODE": 13.7236, "ARG_OF_PERICENTER": 213.4853, "MEAN_ANOMALY": 298.7385, "EPHEMERIS_TYPE": 0, "CLASSIFICATION_TYPE": "U", "NORAD_CAT_ID": 30273, "ELEMENT_SET_NO": 999, "REV_AT_EPOCH": 96708, "BSTAR": 0.00030361, "MEAN_MOTION_DOT": 4.33e-06, "MEAN_MOTION_DDOT": 0}, "tle": {"line1": "1 30273U 99025YJ  25359.53677509  .00000433  00000+0  30361-3 0  9991", "line2": "2 30273  98.8391  13.7236 0060714 213.4853 298.7385 14.02675278967085"}}, "geometry": {"type": "Point", "coordinates": [1.2453149750371746, 55.494761148708704]}}, {"type": "Feature", "properties": {"norad_id": 30274, "name": "FENGYUN 1C DEB", "group": "fengyun-1c-debris", "lat": 80.6807973681119, "lon": 43.144002333544734, "alt_km": 712.3805369118772, "timestamp": "2025-12-26T03:50:12.368343+00:00", "meta": {"OBJECT_NAME": "FENGYUN 1C DEB", "OBJECT_ID": "1999-025YK", "EPOCH": "2025-12-25T14:47:33.624960", "MEAN_MOTION": 14.51876025, "ECCENTRICITY": 0.0004654, "INCLINATION": 99.3016, "RA_OF_ASC_NODE": 129.6577, "ARG_OF_PERICENTER": 187.3135, "MEAN_ANOMALY": 303.1192, "EPHEMERIS_TYPE": 0, "CLASSIFICATION_TYPE": "U", "NORAD_CAT_ID": 30274, "ELEMENT_SET_NO": 999, "REV_AT_EPOCH": 98397, "BSTAR": 0.0027783, "MEAN_MOTION_DOT": 0.0001116, "MEAN_MOTION_DDOT": 0}, "tle": {"line1": "1 30274U 99025YK  25359.61636140  .00011160  00000+0  27783-2 0  9999", "line2": "2 30274  99.3016 129.6577 0004654 187.3135 303.1192 14.51876025983974"}}, "geometry": {"type": "Point", "coordinates": [43.144002333544734, 80.6807973681119]}}, {"type": "Feature", "properties": {"norad_id": 30275, "name": "FENGYUN 1C DEB", "group": "fengyun-1c-debris", "lat": 80.93382269114962, "lon": -23.294737028852115, "alt_km": 716.6687585711679, "timestamp": "2025-12-26T03:50:12.368354+00:00", "meta": {"OBJECT_NAME": "FENGYUN 1C DEB", "OBJECT_ID": "1999-025YL", "EPOCH": "2025-12-25T18:01:26.894208", "MEAN_MOTION": 14.45484294, "ECCENTRICITY": 0.0039642, "INCLINATION": 98.627, "RA_OF_ASC_NODE": 84.2223, "ARG_OF_PERICENTER": 148.922, "MEAN_ANOMALY": 337.8497, "EPHEMERIS_TYPE": 0, "CLASSIFICATION_TYPE": "U", "NORAD_CAT_ID": 30275, "ELEMENT_SET_NO": 999, "REV_AT_EPOCH": 98272, "BSTAR": 0.0022952, "MEAN_MOTION_DOT": 8.13e-05, "MEAN_MOTION_DDOT": 0}, "tle": {"line1": "1 30275U 99025YL  25359.75100572  .00008130  00000+0  22952-2 0  9996", "line2": "2 30275  98.6270  84.2223 0039642 148.9220 337.8497 14.45484294982726"}}, "geometry": {"type": "Point", "coordinates": [-23.294737028852115, 80.93382269114962]}}, {"type": "Feature", "properties": {"norad_id": 30276, "name": "FENGYUN 1C DEB", "group": "fengyun-1c-debris", "lat": -50.42209036374128, "lon": -118.97427162732893, "alt_km": 825.4729356424123, "timestamp": "2025-12-26T03:50:12.368364+00:00", "meta": {"OBJECT_NAME": "FENGYUN 1C DEB", "OBJECT_ID": "1999-025YM", "EPOCH": "2025-12-24T22:09:07.879968", "MEAN_MOTION": 14.27095109, "ECCENTRICITY": 0.0023922, "INCLINATION": 98.8584, "RA_OF_ASC_NODE": 70.6482, "ARG_OF_PERICENTER": 56.0779, "MEAN_ANOMALY": 304.2671, "EPHEMERIS_TYPE": 0, "CLASSIFICATION_TYPE": "U", "NORAD_CAT_ID": 30276, "ELEMENT_SET_NO": 999, "REV_AT_EPOCH": 97704, "BSTAR": 0.0012846, "MEAN_MOTION_DOT": 3.096e-05, "MEAN_MOTION_DDOT": 0}, "tle": {"line1": "1 30276U 99025YM  25358.92300787  .00003096  00000+0  12846-2 0  9992", "line2": "2 30276  98.8584  70.6482 0023922  56.0779 304.2671 14.27095109977049"}}, "geometry": {"type": "Point", "coordinates": [-118.97427162732893, -50.42209036374128]}}, {"type": "Feature", "properties": {"norad_id": 30277, "name": "FENGYUN 1C DEB", "group": "fengyun-1c-debris", "lat": 10.172124380508421, "lon": 69.24881429912003, "alt_km": 905.0909805460415, "timestamp": "2025-12-26T03:50:12.368374+00:00", "meta": {"OBJECT_NAME": "FENGYUN 1C DEB", "OBJECT_ID": "1999-025YN", "EPOCH": "2025-12-25T16:36:17.376192", "MEAN_MOTION": 14.13641014, "ECCENTRICITY": 0.0123955, "INCLINATION": 98.9715, "RA_OF_ASC_NODE": 70.4036, "ARG_OF_PERICENTER": 141.536, "MEAN_ANOMALY": 9.6061, "EPHEMERIS_TYPE": 0, "CLASSIFICATION_TYPE": "U", "NORAD_CAT_ID": 30277, "ELEMENT_SET_NO": 999, "REV_AT_EPOCH": 96972, "BSTAR": 0.0011556, "MEAN_MOTION_DOT": 2.303e-05, "MEAN_MOTION_DDOT": 0}, "tle": {"line1": "1 30277U 99025YN  25359.69186778  .00002303  00000+0  11556-2 0  9997", "line2": "2 30277  98.9715  70.4036 0123955 141.5360   9.6061 14.13641014969725"}}, "geometry": {"type": "Point", "coordinates": [69.24881429912003, 10.172124380508421]}}, {"type": "Feature", "properties": {"norad_id": 30279, "name": "FENGYUN 1C DEB", "group": "fengyun-1c-debris", "lat": -62.36833309310458, "lon": -46.65420649307826, "alt_km": 840.9994136479245, "timestamp": "2025-12-26T03:50:12.368385+00:00", "meta": {"OBJECT_NAME": "FENGYUN 1C DEB", "OBJECT_ID": "1999-025YQ", "EPOCH": "2025-12-25T19:59:14.250912", "MEAN_MOTION": 14.23158442, "ECCENTRICITY": 0.0219676, "INCLINATION": 99.1515, "RA_OF_ASC_NODE": 295.0711, "ARG_OF_PERICENTER": 35.393, "MEAN_ANOMALY": 28.6213, "EPHEMERIS_TYPE": 0, "CLASSIFICATION_TYPE": "U", "NORAD_CAT_ID": 30279, "ELEMENT_SET_NO": 999, "REV_AT_EPOCH": 97797, "BSTAR": 0.0010318, "MEAN_MOTION_DOT": 2.937e-05, "MEAN_MOTION_DDOT": 0}, "tle": {"line1": "1 30279U 99025YQ  25359.83280383  .00002937  00000+0  10318-2 0  9990", "line2": "2 30279  99.1515 295.0711 0219676  35.3930  28.6213 14.23158442977977"}}, "geometry": {"type": "Point", "coordinates": [-46.65420649307826, -62.36833309310458]}}, {"type": "Feature", "properties": {"norad_id": 30280, "name": "FENGYUN 1C DEB", "group": "fengyun-1c-debris", "lat": -48.053105596306224, "lon": -1.1352799568894383, "alt_km": 851.4032335049224, "timestamp": "2025-12-26T03:50:12.368395+00:00", "meta": {"OBJECT_NAME": "FENGYUN 1C DEB", "OBJECT_ID": "1999-025YR", "EPOCH": "2025-12-25T13:11:25.122048", "MEAN_MOTION": 13.98333591, "ECCENTRICITY": 0.0079837, "INCLINATION": 98.7755, "RA_OF_ASC_NODE": 348.3842, "ARG_OF_PERICENTER": 293.8024, "MEAN_ANOMALY": 186.7646, "EPHEMERIS_TYPE": 0, "CLASSIFICATION_TYPE": "U", "NORAD_CAT_ID": 30280, "ELEMENT_SET_NO": 999, "REV_AT_EPOCH": 96585, "BSTAR": 0.0001401, "MEAN_MOTION_DOT": 1.63e-06, "MEAN_MOTION_DDOT": 0}, "tle": {"line1": "1 30280U 99025YR  25359.54959632  .00000163  00000+0  14010-3 0  9993", "line2": "2 30280  98.7755 348.3842 0079837 293.8024 186.7646 13.98333591965856"}}, "geometry": {"type": "Point", "coordinates": [-1.1352799568894383, -48.053105596306224]}}, {"type": "Feature", "properties": {"norad_id": 30281, "name": "FENGYUN 1C DEB", "group": "fengyun-1c-debris", "lat": 37.997901546670604, "lon": -17.29349355889889, "alt_km": 874.0875406305377, "timestamp": "2025-12-26T03:50:12.368406+00:00", "meta": {"OBJECT_NAME": "FENGYUN 1C DEB", "OBJECT_ID": "1999-025YS", "EPOCH": "2025-12-25T14:35:58.904160", "MEAN_MOTION": 14.10485123, "ECCENTRICITY": 0.0028374, "INCLINATION": 98.7579, "RA_OF_ASC_NODE": 349.0861, "ARG_OF_PERICENTER": 199.7254, "MEAN_ANOMALY": 279.9598, "EPHEMERIS_TYPE": 0, "CLASSIFICATION_TYPE": "U", "NORAD_CAT_ID": 30281, "ELEMENT_SET_NO": 999, "REV_AT_EPOCH": 97402, "BSTAR": 0.0001796, "MEAN_MOTION_DOT": 2.78e-06, "MEAN_MOTION_DDOT": 0}, "tle": {"line1": "1 30281U 99025YS  25359.60832065  .00000278  00000+0  17960-3 0  9995", "line2": "2 30281  98.7579 349.0861 0028374 199.7254 279.9598 14.10485123974023"}}, "geometry": {"type": "Point", "coordinates": [-17.29349355889889, 37.997901546670604]}}, {"type": "Feature", "properties": {"norad_id": 30282, "name": "FENGYUN 1C DEB", "group": "fengyun-1c-debris", "lat": -81.48151246197948, "lon": 89.7676859786289, "alt_km": 763.5646563507853, "timestamp": "2025-12-26T03:50:12.368416+00:00", "meta": {"OBJECT_NAME": "FENGYUN 1C DEB", "OBJECT_ID": "1999-025YT", "EPOCH": "2025-12-25T13:31:31.233216", "MEAN_MOTION": 14.12994617, "ECCENTRICITY": 0.0209624, "INCLINATION": 98.5018, "RA_OF_ASC_NODE": 2.1849, "ARG_OF_PERICENTER": 325.2873, "MEAN_ANOMALY": 155.4728, "EPHEMERIS_TYPE": 0, "CLASSIFICATION_TYPE": "U", "NORAD_CAT_ID": 30282, "ELEMENT_SET_NO": 999, "REV_AT_EPOCH": 97532, "BSTAR": 0.00035609, "MEAN_MOTION_DOT": 7.74e-06, "MEAN_MOTION_DDOT": 0}, "tle": {"line1": "1 30282U 99025YT  25359.56355594  .00000774  00000+0  35609-3 0  9999", "line2": "2 30282  98.5018   2.1849 0209624 325.2873 155.4728 14.12994617975327"}}, "geometry": {"type": "Point", "coordinates": [89.7676859786289, -81.48151246197948]}}]}